{"type": "FeatureCollection", "features": [ {"type": "Feature", "properties": {"norad_id": 66583, "name": "STARLINK-35941", "group": "last-30-days", "lat": 9.499511237417067, "lon": -46.310842581469764, "alt_km": 408.88796091306085, "timestamp": "2025-12-08T19:31:47.636946+00:00", "meta": {"OBJECT_NAME": "STARLINK-35941", "OBJECT_ID": "2025-268AC", "EPOCH": "2025-12-08T06:00:02.999808", "MEAN_MOTION": 15.54791273, "ECCENTRICITY": 0.00013941, "INCLINATION": 43.0004, "RA_OF_ASC_NODE": 147.3464, "ARG_OF_PERICENTER": 266.656, "MEAN_ANOMALY": 342.7992, "EPHEMERIS_TYPE": 0, "CLASSIFICATION_TYPE": "U", "NORAD_CAT_ID": 66583, "ELEMENT_SET_NO": 999, "REV_AT_EPOCH": 394, "BSTAR": -0.033618799, "MEAN_MOTION_DOT": -0.02048893, "MEAN_MOTION_DDOT": 0}, "tle": {"line1": "1 66583U 25268AC  25342.25003472 -.02048893  00000+0 -33619-1 0  9998", "line2": "2 66583  43.0004 147.3464 0001394 266.6560 342.7992 15.54791273  3944"}}, "geometry": {"type": "Point", "coordinates": [-46.310842581469764, 9.499511237417067]}}, {"type": "Feature", "properties": {"norad_id": 66584, "name": "STARLINK-35939", "group": "last-30-days", "lat": 8.209348517019619, "lon": -44.876773219193424, "alt_km": 408.8950224167929, "timestamp": "2025-12-08T19:31:47.636956+00:00", "meta": {"OBJECT_NAME": "STARLINK-35939", "OBJECT_ID": "2025-268AD", "EPOCH": "2025-12-08T06:00:02.999808", "MEAN_MOTION": 15.54786443, "ECCENTRICITY": 0.00013686, "INCLINATION": 43.0007, "RA_OF_ASC_NODE": 147.3419, "ARG_OF_PERICENTER": 261.6965, "MEAN_ANOMALY": 349.6803, "EPHEMERIS_TYPE": 0, "CLASSIFICATION_TYPE": "U", "NORAD_CAT_ID": 66584, "ELEMENT_SET_NO": 999, "REV_AT_EPOCH": 394, "BSTAR": -0.033525994, "MEAN_MOTION_DOT": -0.02043501, "MEAN_MOTION_DDOT": 0}, "tle": {"line1": "1 66584U 25268AD  25342.25003472 -.02043501  00000+0 -33526-1 0  9997", "line2": "2 66584  43.0007 147.3419 0001368 261.6965 349.6803 15.54786443  3943"}}, "geometry": {"type": "Point", "coordinates": [-44.876773219193424, 8.209348517019619]}}, {"type": "Feature", "properties": {"norad_id": 66585, "name": "STARLINK-35963", "group": "last-30-days", "lat": 6.917359803363166, "lon": -43.45606588591759, "alt_km": 409.10279119343613, "timestamp": "2025-12-08T19:31:47.636964+00:00", "meta": {"OBJECT_NAME": "STARLINK-35963", "OBJECT_ID": "2025-268AE", "EPOCH": "2025-12-08T06:00:02.999808", "MEAN_MOTION": 15.54789977, "ECCENTRICITY": 0.00015409, "INCLINATION": 43.0003, "RA_OF_ASC_NODE": 147.3372, "ARG_OF_PERICENTER": 263.5052, "MEAN_ANOMALY": 349.7845, "EPHEMERIS_TYPE": 0, "CLASSIFICATION_TYPE": "U", "NORAD_CAT_ID": 66585, "ELEMENT_SET_NO": 999, "REV_AT_EPOCH": 394, "BSTAR": -0.033579348, "MEAN_MOTION_DOT": -0.02046753, "MEAN_MOTION_DDOT": 0}, "tle": {"line1": "1 66585U 25268AE  25342.25003472 -.02046753  00000+0 -33579-1 0  9998", "line2": "2 66585  43.0003 147.3372 0001540 263.5052 349.7845 15.54789977  3940"}}, "geometry": {"type": "Point", "coordinates": [-43.45606588591759, 6.917359803363166]}}, {"type": "Feature", "properties": {"norad_id": 66586, "name": "TJS-21", "group": "last-30-days", "lat": 48.17276130819593, "lon": -162.96018177927883, "alt_km": 26731.419260788698, "timestamp": "2025-12-08T19:31:47.636976+00:00", "meta": {"OBJECT_NAME": "TJS-21", "OBJECT_ID": "2025-269A", "EPOCH": "2025-12-06T17:47:41.602272", "MEAN_MOTION": 2.00560491, "ECCENTRICITY": 0.68052367, "INCLINATION": 63.2668, "RA_OF_ASC_NODE": 162.9832, "ARG_OF_PERICENTER": 269.7989, "MEAN_ANOMALY": 18.6583, "EPHEMERIS_TYPE": 0, "CLASSIFICATION_TYPE": "U", "NORAD_CAT_ID": 66586, "ELEMENT_SET_NO": 999, "REV_AT_EPOCH": 32, "BSTAR": -0.014744059, "MEAN_MOTION_DOT": 1.105e-05, "MEAN_MOTION_DDOT": 0}, "tle": {"line1": "1 66586U 25269A   25340.74145373  .00001105  00000+0 -14744-1 0  9991", "line2": "2 66586  63.2668 162.9832 6805236 269.7989  18.6583  2.00560491   328"}}, "geometry": {"type": "Point", "coordinates": [-162.96018177927883, 48.17276130819593]}}, {"type": "Feature", "properties": {"norad_id": 66587, "name": "CZ-3B R/B", "group": "last-30-days", "lat": -26.416933004259036, "lon": 146.99780695583289, "alt_km": 6275.904592206013, "timestamp": "2025-12-08T19:31:47.636988+00:00", "meta": {"OBJECT_NAME": "CZ-3B R/B", "OBJECT_ID": "2025-269B", "EPOCH": "2025-12-07T20:37:07.541184", "MEAN_MOTION": 2.0277528, "ECCENTRICITY": 0.75198553, "INCLINATION": 51.3496, "RA_OF_ASC_NODE": 170.7741, "ARG_OF_PERICENTER": 227.8456, "MEAN_ANOMALY": 38.1634, "EPHEMERIS_TYPE": 0, "CLASSIFICATION_TYPE": "U", "NORAD_CAT_ID": 66587, "ELEMENT_SET_NO": 999, "REV_AT_EPOCH": 35, "BSTAR": 0.0013712139, "MEAN_MOTION_DOT": 0.00050942, "MEAN_MOTION_DDOT": -4.9325e-08}, "tle": {"line1": "1 66587U 25269B   25341.85911506  .00050942 -49325-7  13712-2 0  9993", "line2": "2 66587  51.3496 170.7741 7519855 227.8456  38.1634  2.02775280   359"}}, "geometry": {"type": "Point", "coordinates": [146.99780695583289, -26.416933004259036]}}, {"type": "Feature", "properties": {"norad_id": 66588, "name": "STARLINK-36076", "group": "last-30-days", "lat": 11.740771149940363, "lon": -131.3463399452258, "alt_km": 389.12018234060906, "timestamp": "2025-12-08T19:31:47.637000+00:00", "meta": {"OBJECT_NAME": "STARLINK-36076", "OBJECT_ID": "2025-270A", "EPOCH": "2025-12-08T06:00:02.999808", "MEAN_MOTION": 15.61398881, "ECCENTRICITY": 0.00015388, "INCLINATION": 42.999, "RA_OF_ASC_NODE": 219.1116, "ARG_OF_PERICENTER": 276.4429, "MEAN_ANOMALY": 171.0351, "EPHEMERIS_TYPE": 0, "CLASSIFICATION_TYPE": "U", "NORAD_CAT_ID": 66588, "ELEMENT_SET_NO": 999, "REV_AT_EPOCH": 367, "BSTAR": -0.025963777, "MEAN_MOTION_DOT": -0.01999435, "MEAN_MOTION_DDOT": 0}, "tle": {"line1": "1 66588U 25270A   25342.25003472 -.01999435  00000+0 -25964-1 0  9996", "line2": "2 66588  42.9990 219.1116 0001538 276.4429 171.0351 15.61398881  3674"}}, "geometry": {"type": "Point", "coordinates": [-131.3463399452258, 11.740771149940363]}}, {"type": "Feature", "properties": {"norad_id": 66589, "name": "STARLINK-35447", "group": "last-30-days", "lat": 14.27434915645063, "lon": -128.3985655332899, "alt_km": 388.8443411876724, "timestamp": "2025-12-08T19:31:47.637009+00:00", "meta": {"OBJECT_NAME": "STARLINK-35447", "OBJECT_ID": "2025-270B", "EPOCH": "2025-12-08T06:00:02.999808", "MEAN_MOTION": 15.61397354, "ECCENTRICITY": 0.00015026, "INCLINATION": 42.9989, "RA_OF_ASC_NODE": 219.1019, "ARG_OF_PERICENTER": 275.3942, "MEAN_ANOMALY": 175.9195, "EPHEMERIS_TYPE": 0, "CLASSIFICATION_TYPE": "U", "NORAD_CAT_ID": 66589, "ELEMENT_SET_NO": 999, "REV_AT_EPOCH": 378, "BSTAR": -0.025936618, "MEAN_MOTION_DOT": -0.0199747, "MEAN_MOTION_DDOT": 0}, "tle": {"line1": "1 66589U 25270B   25342.25003472 -.01997470  00000+0 -25937-1 0  9994", "line2": "2 66589  42.9989 219.1019 0001502 275.3942 175.9195 15.61397354  3789"}}, "geometry": {"type": "Point", "coordinates": [-128.3985655332899, 14.27434915645063]}}, {"type": "Feature", "properties": {"norad_id": 66590, "name": "STARLINK-35429", "group": "last-30-days", "lat": 13.011994800726418, "lon": -129.8797473768893, "alt_km": 388.9907878005479, "timestamp": "2025-12-08T19:31:47.637018+00:00", "meta": {"OBJECT_NAME": "STARLINK-35429", "OBJECT_ID": "2025-270C", "EPOCH": "2025-12-08T06:00:02.999808", "MEAN_MOTION": 15.61397563, "ECCENTRICITY": 0.00015011, "INCLINATION": 42.9989, "RA_OF_ASC_NODE": 219.1067, "ARG_OF_PERICENTER": 275.5339, "MEAN_ANOMALY": 173.8627, "EPHEMERIS_TYPE": 0, "CLASSIFICATION_TYPE": "U", "NORAD_CAT_ID": 66590, "ELEMENT_SET_NO": 999, "REV_AT_EPOCH": 378, "BSTAR": -0.025939748, "MEAN_MOTION_DOT": -0.01997695, "MEAN_MOTION_DDOT": 0}, "tle": {"line1": "1 66590U 25270C   25342.25003472 -.01997695  00000+0 -25940-1 0  9999", "line2": "2 66590  42.9989 219.1067 0001501 275.5339 173.8627 15.61397563  3784"}}, "geometry": {"type": "Point", "coordinates": [-129.8797473768893, 13.011994800726418]}}, {"type": "Feature", "properties": {"norad_id": 66591, "name": "STARLINK-36058", "group": "last-30-days", "lat": 15.527848285712484, "lon": -126.90024185910183, "alt_km": 388.68003907587536, "timestamp": "2025-12-08T19:31:47.637028+00:00", "meta": {"OBJECT_NAME": "STARLINK-36058", "OBJECT_ID": "2025-270D", "EPOCH": "2025-12-08T06:00:02.999808", "MEAN_MOTION": 15.6139789, "ECCENTRICITY": 0.0001546, "INCLINATION": 42.9989, "RA_OF_ASC_NODE": 219.097, "ARG_OF_PERICENTER": 276.0496, "MEAN_ANOMALY": 177.1799, "EPHEMERIS_TYPE": 0, "CLASSIFICATION_TYPE": "U", "NORAD_CAT_ID": 66591, "ELEMENT_SET_NO": 999, "REV_AT_EPOCH": 367, "BSTAR": -0.025934874, "MEAN_MOTION_DOT": -0.01997422, "MEAN_MOTION_DDOT": 0}, "tle": {"line1": "1 66591U 25270D   25342.25003472 -.01997422  00000+0 -25935-1 0  9992", "line2": "2 66591  42.9989 219.0970 0001546 276.0496 177.1799 15.61397890  3674"}}, "geometry": {"type": "Point", "coordinates": [-126.90024185910183, 15.527848285712484]}}, {"type": "Feature", "properties": {"norad_id": 66592, "name": "STARLINK-36066", "group": "last-30-days", "lat": 16.770269502224377, "lon": -125.38436795228202, "alt_km": 388.498997893098, "timestamp": "2025-12-08T19:31:47.637038+00:00", "meta": {"OBJECT_NAME": "STARLINK-36066", "OBJECT_ID": "2025-270E", "EPOCH": "2025-12-08T06:00:02.999808", "MEAN_MOTION": 15.61397534, "ECCENTRICITY": 0.00014463, "INCLINATION": 42.9989, "RA_OF_ASC_NODE": 219.0923, "ARG_OF_PERICENTER": 276.6312, "MEAN_ANOMALY": 178.5167, "EPHEMERIS_TYPE": 0, "CLASSIFICATION_TYPE": "U", "NORAD_CAT_ID": 66592, "ELEMENT_SET_NO": 999, "REV_AT_EPOCH": 358, "BSTAR": -0.025937885, "MEAN_MOTION_DOT": -0.01997526, "MEAN_MOTION_DDOT": 0}, "tle": {"line1": "1 66592U 25270E   25342.25003472 -.01997526  00000+0 -25938-1 0  9991", "line2": "2 66592  42.9989 219.0923 0001446 276.6312 178.5167 15.61397534  3584"}}, "geometry": {"type": "Point", "coordinates": [-125.38436795228202, 16.770269502224377]}}]}